[{"OBJECT_NAME":"HAWK-C","OBJECT_ID":"2018-099AT","EPOCH":"2026-03-09T16:08:34.251360","MEAN_MOTION":15.26407167,"ECCENTRICITY":0.00403625,"INCLINATION":97.4027,"RA_OF_ASC_NODE":122.6817,"ARG_OF_PERICENTER":277.4052,"MEAN_ANOMALY":82.2601,"EPHEMERIS_TYPE":0,"CLASSIFICATION_TYPE":"U","NORAD_CAT_ID":43799,"ELEMENT_SET_NO":999,"REV_AT_EPOCH":39872,"BSTAR":0.00035662773,"MEAN_MOTION_DOT":9.431e-5,"MEAN_MOTION_DDOT":0},{"OBJECT_NAME":"STARLINK-31988","OBJECT_ID":"2024-150U","EPOCH":"2026-03-09T23:22:10.589952","MEAN_MOTION":15.30185319,"ECCENTRICITY":0.00010232,"INCLINATION":53.161,"RA_OF_ASC_NODE":305.7921,"ARG_OF_PERICENTER":102.7851,"MEAN_ANOMALY":257.3264,"EPHEMERIS_TYPE":0,"CLASSIFICATION_TYPE":"U","NORAD_CAT_ID":60601,"ELEMENT_SET_NO":999,"REV_AT_EPOCH":8800,"BSTAR":2.2288396e-5,"MEAN_MOTION_DOT":3.01e-6,"MEAN_MOTION_DDOT":0}]
